{
  "links" : {
    "next" : "https://api.nasa.gov/neo/rest/v1/feed?start_date=2000-02-09&end_date=2000-02-09&detailed=true&api_key=t0TVs3DtDT2H8Oy2Zy8m2eVrNsAVKAexjcZXUckd",
    "prev" : "https://api.nasa.gov/neo/rest/v1/feed?start_date=2000-02-07&end_date=2000-02-07&detailed=true&api_key=t0TVs3DtDT2H8Oy2Zy8m2eVrNsAVKAexjcZXUckd",
    "self" : "https://api.nasa.gov/neo/rest/v1/feed?start_date=2000-02-08&end_date=2000-02-08&detailed=true&api_key=t0TVs3DtDT2H8Oy2Zy8m2eVrNsAVKAexjcZXUckd"
  },
  "element_count" : 4,
  "near_earth_objects" : {
    "2000-02-08" : [ {
      "links" : {
        "self" : "https://api.nasa.gov/neo/rest/v1/neo/2429736?api_key=t0TVs3DtDT2H8Oy2Zy8m2eVrNsAVKAexjcZXUckd"
      },
      "neo_reference_id" : "2429736",
      "name" : "429736 (2011 MB2)",
      "nasa_jpl_url" : "http://ssd.jpl.nasa.gov/sbdb.cgi?sstr=2429736",
      "absolute_magnitude_h" : 20.3,
      "estimated_diameter" : {
        "kilometers" : {
          "estimated_diameter_min" : 0.2315021222,
          "estimated_diameter_max" : 0.5176544822
        },
        "meters" : {
          "estimated_diameter_min" : 231.5021222103,
          "estimated_diameter_max" : 517.6544821978
        },
        "miles" : {
          "estimated_diameter_min" : 0.1438487052,
          "estimated_diameter_max" : 0.3216554833
        },
        "feet" : {
          "estimated_diameter_min" : 759.5214226325,
          "estimated_diameter_max" : 1698.3415313737
        }
      },
      "is_potentially_hazardous_asteroid" : false,
      "close_approach_data" : [ {
        "close_approach_date" : "2000-02-08",
        "epoch_date_close_approach" : 949996800000,
        "relative_velocity" : {
          "kilometers_per_second" : "20.2702511842",
          "kilometers_per_hour" : "72972.9042629443",
          "miles_per_hour" : "45342.5248738278"
        },
        "miss_distance" : {
          "astronomical" : "0.3034153661",
          "lunar" : "118.0285720825",
          "kilometers" : "45390292",
          "miles" : "28204220"
        },
        "orbiting_body" : "Earth"
      } ],
      "orbital_data" : {
        "orbit_id" : "32",
        "orbit_determination_date" : "2017-04-06 09:20:56",
        "orbit_uncertainty" : "0",
        "minimum_orbit_intersection" : ".10431",
        "jupiter_tisserand_invariant" : "5.779",
        "epoch_osculation" : "2458000.5",
        "eccentricity" : ".4156099429834553",
        "semi_major_axis" : "1.044158573940587",
        "inclination" : "12.61015126277415",
        "ascending_node_longitude" : "64.76404948629143",
        "orbital_period" : "389.7158913963528",
        "perihelion_distance" : ".6101958885594539",
        "perihelion_argument" : "321.1555306499532",
        "aphelion_distance" : "1.478121259321721",
        "perihelion_time" : "2458152.248435633129",
        "mean_anomaly" : "219.822403874297",
        "mean_motion" : ".9237498596993806",
        "equinox" : "J2000"
      }
    }, {
      "links" : {
        "self" : "https://api.nasa.gov/neo/rest/v1/neo/2434632?api_key=t0TVs3DtDT2H8Oy2Zy8m2eVrNsAVKAexjcZXUckd"
      },
      "neo_reference_id" : "2434632",
      "name" : "434632 (2005 WE)",
      "nasa_jpl_url" : "http://ssd.jpl.nasa.gov/sbdb.cgi?sstr=2434632",
      "absolute_magnitude_h" : 19.8,
      "estimated_diameter" : {
        "kilometers" : {
          "estimated_diameter_min" : 0.2914439045,
          "estimated_diameter_max" : 0.6516883822
        },
        "meters" : {
          "estimated_diameter_min" : 291.4439045349,
          "estimated_diameter_max" : 651.6883821679
        },
        "miles" : {
          "estimated_diameter_min" : 0.1810947904,
          "estimated_diameter_max" : 0.4049402617
        },
        "feet" : {
          "estimated_diameter_min" : 956.1808197541,
          "estimated_diameter_max" : 2138.0853117517
        }
      },
      "is_potentially_hazardous_asteroid" : false,
      "close_approach_data" : [ {
        "close_approach_date" : "2000-02-08",
        "epoch_date_close_approach" : 949996800000,
        "relative_velocity" : {
          "kilometers_per_second" : "9.9821068156",
          "kilometers_per_hour" : "35935.5845361485",
          "miles_per_hour" : "22328.9747358085"
        },
        "miss_distance" : {
          "astronomical" : "0.4678717583",
          "lunar" : "182.0021057129",
          "kilometers" : "69992616",
          "miles" : "43491396"
        },
        "orbiting_body" : "Earth"
      } ],
      "orbital_data" : {
        "orbit_id" : "44",
        "orbit_determination_date" : "2017-04-06 09:20:48",
        "orbit_uncertainty" : "0",
        "minimum_orbit_intersection" : ".127077",
        "jupiter_tisserand_invariant" : "5.409",
        "epoch_osculation" : "2458000.5",
        "eccentricity" : ".2513969702048102",
        "semi_major_axis" : "1.151234841946835",
        "inclination" : "12.36463348869641",
        "ascending_node_longitude" : "289.9485691790042",
        "orbital_period" : "451.1742596395365",
        "perihelion_distance" : ".8618178906871873",
        "perihelion_argument" : "22.62495531962762",
        "aphelion_distance" : "1.440651793206483",
        "perihelion_time" : "2458112.348931959110",
        "mean_anomaly" : "270.7537395031142",
        "mean_motion" : ".7979178605792366",
        "equinox" : "J2000"
      }
    }, {
      "links" : {
        "self" : "https://api.nasa.gov/neo/rest/v1/neo/3028805?api_key=t0TVs3DtDT2H8Oy2Zy8m2eVrNsAVKAexjcZXUckd"
      },
      "neo_reference_id" : "3028805",
      "name" : "(2000 CM33)",
      "nasa_jpl_url" : "http://ssd.jpl.nasa.gov/sbdb.cgi?sstr=3028805",
      "absolute_magnitude_h" : 20.8,
      "estimated_diameter" : {
        "kilometers" : {
          "estimated_diameter_min" : 0.1838886721,
          "estimated_diameter_max" : 0.411187571
        },
        "meters" : {
          "estimated_diameter_min" : 183.8886720703,
          "estimated_diameter_max" : 411.1875710413
        },
        "miles" : {
          "estimated_diameter_min" : 0.1142630881,
          "estimated_diameter_max" : 0.2555000322
        },
        "feet" : {
          "estimated_diameter_min" : 603.309310875,
          "estimated_diameter_max" : 1349.040630575
        }
      },
      "is_potentially_hazardous_asteroid" : true,
      "close_approach_data" : [ {
        "close_approach_date" : "2000-02-08",
        "epoch_date_close_approach" : 949996800000,
        "relative_velocity" : {
          "kilometers_per_second" : "8.7688477757",
          "kilometers_per_hour" : "31567.8519924054",
          "miles_per_hour" : "19615.0355893921"
        },
        "miss_distance" : {
          "astronomical" : "0.0461487703",
          "lunar" : "17.9518718719",
          "kilometers" : "6903757.5",
          "miles" : "4289796"
        },
        "orbiting_body" : "Earth"
      } ],
      "orbital_data" : {
        "orbit_id" : "33",
        "orbit_determination_date" : "2017-04-06 09:17:09",
        "orbit_uncertainty" : "0",
        "minimum_orbit_intersection" : ".0441545",
        "jupiter_tisserand_invariant" : "4.884",
        "epoch_osculation" : "2458000.5",
        "eccentricity" : ".272123617932279",
        "semi_major_axis" : "1.322796951793477",
        "inclination" : "11.55080657688733",
        "ascending_node_longitude" : "132.8617040107504",
        "orbital_period" : "555.6971956114696",
        "perihelion_distance" : ".9628326594816459",
        "perihelion_argument" : "50.20506585788244",
        "aphelion_distance" : "1.682761244105309",
        "perihelion_time" : "2457731.123528337211",
        "mean_anomaly" : "174.5114615737722",
        "mean_motion" : ".6478348331484176",
        "equinox" : "J2000"
      }
    }, {
      "links" : {
        "self" : "https://api.nasa.gov/neo/rest/v1/neo/3747307?api_key=t0TVs3DtDT2H8Oy2Zy8m2eVrNsAVKAexjcZXUckd"
      },
      "neo_reference_id" : "3747307",
      "name" : "(2016 EC157)",
      "nasa_jpl_url" : "http://ssd.jpl.nasa.gov/sbdb.cgi?sstr=3747307",
      "absolute_magnitude_h" : 23.5,
      "estimated_diameter" : {
        "kilometers" : {
          "estimated_diameter_min" : 0.0530340723,
          "estimated_diameter_max" : 0.1185877909
        },
        "meters" : {
          "estimated_diameter_min" : 53.0340723319,
          "estimated_diameter_max" : 118.5877908577
        },
        "miles" : {
          "estimated_diameter_min" : 0.0329538346,
          "estimated_diameter_max" : 0.0736870142
        },
        "feet" : {
          "estimated_diameter_min" : 173.9963058693,
          "estimated_diameter_max" : 389.0675677576
        }
      },
      "is_potentially_hazardous_asteroid" : false,
      "close_approach_data" : [ {
        "close_approach_date" : "2000-02-08",
        "epoch_date_close_approach" : 949996800000,
        "relative_velocity" : {
          "kilometers_per_second" : "8.5932593166",
          "kilometers_per_hour" : "30935.7335396691",
          "miles_per_hour" : "19222.261765246"
        },
        "miss_distance" : {
          "astronomical" : "0.2510898866",
          "lunar" : "97.6739730835",
          "kilometers" : "37562516",
          "miles" : "23340264"
        },
        "orbiting_body" : "Earth"
      } ],
      "orbital_data" : {
        "orbit_id" : "10",
        "orbit_determination_date" : "2017-04-06 08:27:29",
        "orbit_uncertainty" : "5",
        "minimum_orbit_intersection" : ".0410414",
        "jupiter_tisserand_invariant" : "6.431",
        "epoch_osculation" : "2458000.5",
        "eccentricity" : ".3523729744189714",
        "semi_major_axis" : ".9214915610743905",
        "inclination" : "5.593302181681888",
        "ascending_node_longitude" : "7.50327438343264",
        "orbital_period" : "323.09889326093",
        "perihelion_distance" : ".5967828387966262",
        "perihelion_argument" : "329.2546247105906",
        "aphelion_distance" : "1.246200283352155",
        "perihelion_time" : "2457910.404936523130",
        "mean_anomaly" : "100.3848156962886",
        "mean_motion" : "1.114209944722",
        "equinox" : "J2000"
      }
    } ]
  }
}